{
    "links": {
        "self": "http://www.neowsapp.com/rest/v1/neo/3651160?api_key=iIulBulltgU6a56xZRHN4H3l9WmuAYTsLGpBGhQ2"
    },
    "id": "3651160",
    "neo_reference_id": "3651160",
    "name": "(2013 TH135)",
    "designation": "2013 TH135",
    "nasa_jpl_url": "http://ssd.jpl.nasa.gov/sbdb.cgi?sstr=3651160",
    "absolute_magnitude_h": 20.8,
    "estimated_diameter": {
        "kilometers": {
            "estimated_diameter_min": 0.1838886721,
            "estimated_diameter_max": 0.411187571
        },
        "meters": {
            "estimated_diameter_min": 183.8886720703,
            "estimated_diameter_max": 411.1875710413
        },
        "miles": {
            "estimated_diameter_min": 0.1142630881,
            "estimated_diameter_max": 0.2555000322
        },
        "feet": {
            "estimated_diameter_min": 603.309310875,
            "estimated_diameter_max": 1349.040630575
        }
    },
    "is_potentially_hazardous_asteroid": false,
    "close_approach_data": [
        {
            "close_approach_date": "2013-09-16",
            "close_approach_date_full": "2013-Sep-16 03:09",
            "epoch_date_close_approach": 1379300940000,
            "relative_velocity": {
                "kilometers_per_second": "2.6191332286",
                "kilometers_per_hour": "9428.8796229155",
                "miles_per_hour": "5858.7391190277"
            },
            "miss_distance": {
                "astronomical": "0.273878553",
                "lunar": "106.538757117",
                "kilometers": "40971648.16748211",
                "miles": "25458601.640228718"
            },
            "orbiting_body": "Earth"
        },
        {
            "close_approach_date": "2017-03-18",
            "close_approach_date_full": "2017-Mar-18 21:10",
            "epoch_date_close_approach": 1489871400000,
            "relative_velocity": {
                "kilometers_per_second": "7.102151202",
                "kilometers_per_hour": "25567.7443273592",
                "miles_per_hour": "15886.8020238527"
            },
            "miss_distance": {
                "astronomical": "0.0901766884",
                "lunar": "35.0787317876",
                "kilometers": "13490240.508293708",
                "miles": "8382446.7526328504"
            },
            "orbiting_body": "Mars"
        }
    ],
    "orbital_data": {
        "orbit_id": "14",
        "orbit_determination_date": "2017-04-06 08:44:11",
        "first_observation_date": "2013-10-12",
        "last_observation_date": "2013-11-27",
        "data_arc_in_days": 46,
        "observations_used": 51,
        "orbit_uncertainty": "6",
        "minimum_orbit_intersection": ".262354",
        "jupiter_tisserand_invariant": "3.524",
        "epoch_osculation": "2459000.5",
        "eccentricity": ".4396693368485463",
        "semi_major_axis": "2.201093401246878",
        "inclination": "6.70118562052699",
        "ascending_node_longitude": "87.07690791102966",
        "orbital_period": "1192.768426752384",
        "perihelion_distance": "1.233340125178952",
        "perihelion_argument": "266.3282219686824",
        "aphelion_distance": "3.168846677314804",
        "perihelion_time": "2458933.751290638753",
        "mean_anomaly": "20.14601898498896",
        "mean_motion": ".3018188542936131",
        "equinox": "J2000",
        "orbit_class": {
            "orbit_class_type": "AMO",
            "orbit_class_description": "Near-Earth asteroid orbits similar to that of 1221 Amor",
            "orbit_class_range": "1.017 AU < q (perihelion) < 1.3 AU"
        }
    },
    "is_sentry_object": false
}